[{"OBJECT_NAME":"EAGLET-I","OBJECT_ID":"2018-099AJ","EPOCH":"2026-03-09T16:28:56.807904","MEAN_MOTION":15.12108145,"ECCENTRICITY":0.00104863,"INCLINATION":97.4369,"RA_OF_ASC_NODE":120.9821,"ARG_OF_PERICENTER":336.8524,"MEAN_ANOMALY":23.2233,"EPHEMERIS_TYPE":0,"CLASSIFICATION_TYPE":"U","NORAD_CAT_ID":43790,"ELEMENT_SET_NO":999,"REV_AT_EPOCH":39729,"BSTAR":0.0003526184,"MEAN_MOTION_DOT":6.017e-5,"MEAN_MOTION_DDOT":0},{"OBJECT_NAME":"STARLINK-4070","OBJECT_ID":"2022-053J","EPOCH":"2026-03-09T13:08:41.864064","MEAN_MOTION":15.08836537,"ECCENTRICITY":0.00013442,"INCLINATION":53.2149,"RA_OF_ASC_NODE":154.7596,"ARG_OF_PERICENTER":82.1516,"MEAN_ANOMALY":277.9629,"EPHEMERIS_TYPE":0,"CLASSIFICATION_TYPE":"U","NORAD_CAT_ID":52664,"ELEMENT_SET_NO":999,"REV_AT_EPOCH":21102,"BSTAR":8.2823364e-5,"MEAN_MOTION_DOT":1.03e-5,"MEAN_MOTION_DDOT":0}]
